{"type": "FeatureCollection", "features": [ {"type": "Feature", "properties": {"norad_id": 66614, "name": "STARLINK-36040", "group": "last-30-days", "lat": -29.266886052471293, "lon": 105.9072367851284, "alt_km": 445.51396275957177, "timestamp": "2025-12-21T07:34:33.300300+00:00", "meta": {"OBJECT_NAME": "STARLINK-36040", "OBJECT_ID": "2025-270AC", "EPOCH": "2025-12-20T22:00:01.999584", "MEAN_MOTION": 15.40671151, "ECCENTRICITY": 0.00018192, "INCLINATION": 42.9999, "RA_OF_ASC_NODE": 145.1771, "ARG_OF_PERICENTER": 282.1588, "MEAN_ANOMALY": 336.5262, "EPHEMERIS_TYPE": 0, "CLASSIFICATION_TYPE": "U", "NORAD_CAT_ID": 66614, "ELEMENT_SET_NO": 999, "REV_AT_EPOCH": 555, "BSTAR": 0.0020684484, "MEAN_MOTION_DOT": 0.00087009, "MEAN_MOTION_DDOT": 0}, "tle": {"line1": "1 66614U 25270AC  25354.91668981  .00087009  00000+0  20684-2 0  9991", "line2": "2 66614  42.9999 145.1771 0001819 282.1588 336.5262 15.40671151  5559"}}, "geometry": {"type": "Point", "coordinates": [105.9072367851284, -29.266886052471293]}}, {"type": "Feature", "properties": {"norad_id": 66615, "name": "STARLINK-35988", "group": "last-30-days", "lat": -36.04940117138562, "lon": 14.417813025598061, "alt_km": 446.13735410421305, "timestamp": "2025-12-21T07:34:33.300309+00:00", "meta": {"OBJECT_NAME": "STARLINK-35988", "OBJECT_ID": "2025-270AD", "EPOCH": "2025-12-20T19:38:57.992928", "MEAN_MOTION": 15.4070333, "ECCENTRICITY": 0.00018631, "INCLINATION": 43.0001, "RA_OF_ASC_NODE": 145.9221, "ARG_OF_PERICENTER": 284.8936, "MEAN_ANOMALY": 75.1714, "EPHEMERIS_TYPE": 0, "CLASSIFICATION_TYPE": "U", "NORAD_CAT_ID": 66615, "ELEMENT_SET_NO": 999, "REV_AT_EPOCH": 543, "BSTAR": 0.00091861833, "MEAN_MOTION_DOT": 0.00038267, "MEAN_MOTION_DDOT": 0}, "tle": {"line1": "1 66615U 25270AD  25354.81872677  .00038267  00000+0  91862-3 0  9999", "line2": "2 66615  43.0001 145.9221 0001863 284.8936  75.1714 15.40703330  5439"}}, "geometry": {"type": "Point", "coordinates": [14.417813025598061, -36.04940117138562]}}, {"type": "Feature", "properties": {"norad_id": 66616, "name": "STARLINK-35391", "group": "last-30-days", "lat": -14.107596502875706, "lon": 127.17061622729966, "alt_km": 444.8274470915494, "timestamp": "2025-12-21T07:34:33.300322+00:00", "meta": {"OBJECT_NAME": "STARLINK-35391", "OBJECT_ID": "2025-270AE", "EPOCH": "2025-12-20T22:00:01.999584", "MEAN_MOTION": 15.40672917, "ECCENTRICITY": 0.00014456, "INCLINATION": 43, "RA_OF_ASC_NODE": 145.1169, "ARG_OF_PERICENTER": 277.0914, "MEAN_ANOMALY": 6.4731, "EPHEMERIS_TYPE": 0, "CLASSIFICATION_TYPE": "U", "NORAD_CAT_ID": 66616, "ELEMENT_SET_NO": 999, "REV_AT_EPOCH": 582, "BSTAR": 0.002092818, "MEAN_MOTION_DOT": 0.00088054, "MEAN_MOTION_DDOT": 0}, "tle": {"line1": "1 66616U 25270AE  25354.91668981  .00088054  00000+0  20928-2 0  9995", "line2": "2 66616  43.0000 145.1169 0001445 277.0914   6.4731 15.40672917  5823"}}, "geometry": {"type": "Point", "coordinates": [127.17061622729966, -14.107596502875706]}}, {"type": "Feature", "properties": {"norad_id": 66617, "name": "STARLINK-35940", "group": "last-30-days", "lat": -19.2676141693941, "lon": -18.134067943222014, "alt_km": 450.49942697681126, "timestamp": "2025-12-21T07:34:33.300333+00:00", "meta": {"OBJECT_NAME": "STARLINK-35940", "OBJECT_ID": "2025-271A", "EPOCH": "2025-12-20T19:47:13.217856", "MEAN_MOTION": 15.39629505, "ECCENTRICITY": 9.653e-05, "INCLINATION": 53.16, "RA_OF_ASC_NODE": 148.9882, "ARG_OF_PERICENTER": 80.5261, "MEAN_ANOMALY": 279.5852, "EPHEMERIS_TYPE": 0, "CLASSIFICATION_TYPE": "U", "NORAD_CAT_ID": 66617, "ELEMENT_SET_NO": 999, "REV_AT_EPOCH": 545, "BSTAR": 0.00064055977, "MEAN_MOTION_DOT": 0.00025315, "MEAN_MOTION_DDOT": 0}, "tle": {"line1": "1 66617U 25271A   25354.82445854  .00025315  00000+0  64056-3 0  9991", "line2": "2 66617  53.1600 148.9882 0000965  80.5261 279.5852 15.39629505  5452"}}, "geometry": {"type": "Point", "coordinates": [-18.134067943222014, -19.2676141693941]}}, {"type": "Feature", "properties": {"norad_id": 66618, "name": "STARLINK-35970", "group": "last-30-days", "lat": 51.82489484591074, "lon": -106.31851712985916, "alt_km": 422.489406962095, "timestamp": "2025-12-21T07:34:33.300342+00:00", "meta": {"OBJECT_NAME": "STARLINK-35970", "OBJECT_ID": "2025-271B", "EPOCH": "2025-12-19T22:33:37.423008", "MEAN_MOTION": 15.46560751, "ECCENTRICITY": 0.0001439, "INCLINATION": 53.1597, "RA_OF_ASC_NODE": 152.703, "ARG_OF_PERICENTER": 41.703, "MEAN_ANOMALY": 318.4087, "EPHEMERIS_TYPE": 0, "CLASSIFICATION_TYPE": "U", "NORAD_CAT_ID": 66618, "ELEMENT_SET_NO": 999, "REV_AT_EPOCH": 532, "BSTAR": -0.0083391, "MEAN_MOTION_DOT": -0.0040083, "MEAN_MOTION_DDOT": 0}, "tle": {"line1": "1 66618U 25271B   25353.94001647 -.00400830  00000+0 -83391-2 0  9995", "line2": "2 66618  53.1597 152.7030 0001439  41.7030 318.4087 15.46560751  5320"}}, "geometry": {"type": "Point", "coordinates": [-106.31851712985916, 51.82489484591074]}}, {"type": "Feature", "properties": {"norad_id": 66619, "name": "STARLINK-35951", "group": "last-30-days", "lat": 40.96300638055545, "lon": -173.14424556512495, "alt_km": 422.8484762244743, "timestamp": "2025-12-21T07:34:33.300352+00:00", "meta": {"OBJECT_NAME": "STARLINK-35951", "OBJECT_ID": "2025-271C", "EPOCH": "2025-12-19T22:45:25.750080", "MEAN_MOTION": 15.46545275, "ECCENTRICITY": 0.0002872, "INCLINATION": 53.1623, "RA_OF_ASC_NODE": 152.7597, "ARG_OF_PERICENTER": 23.3692, "MEAN_ANOMALY": 336.7446, "EPHEMERIS_TYPE": 0, "CLASSIFICATION_TYPE": "U", "NORAD_CAT_ID": 66619, "ELEMENT_SET_NO": 999, "REV_AT_EPOCH": 532, "BSTAR": -0.0081194, "MEAN_MOTION_DOT": -0.0039068, "MEAN_MOTION_DDOT": 0}, "tle": {"line1": "1 66619U 25271C   25353.94821470 -.00390680  00000+0 -81194-2 0  9990", "line2": "2 66619  53.1623 152.7597 0002872  23.3692 336.7446 15.46545275  5327"}}, "geometry": {"type": "Point", "coordinates": [-173.14424556512495, 40.96300638055545]}}, {"type": "Feature", "properties": {"norad_id": 66620, "name": "STARLINK-35936", "group": "last-30-days", "lat": 29.901217695110493, "lon": 171.8257057015278, "alt_km": 429.62376451432283, "timestamp": "2025-12-21T07:34:33.300361+00:00", "meta": {"OBJECT_NAME": "STARLINK-35936", "OBJECT_ID": "2025-271D", "EPOCH": "2025-12-19T22:47:58.481952", "MEAN_MOTION": 15.45204148, "ECCENTRICITY": 0.0001217, "INCLINATION": 53.1593, "RA_OF_ASC_NODE": 152.7719, "ARG_OF_PERICENTER": 60.4895, "MEAN_ANOMALY": 299.6234, "EPHEMERIS_TYPE": 0, "CLASSIFICATION_TYPE": "U", "NORAD_CAT_ID": 66620, "ELEMENT_SET_NO": 999, "REV_AT_EPOCH": 532, "BSTAR": -0.0084825, "MEAN_MOTION_DOT": -0.00389636, "MEAN_MOTION_DDOT": 0}, "tle": {"line1": "1 66620U 25271D   25353.94998243 -.00389636  00000+0 -84825-2 0  9998", "line2": "2 66620  53.1593 152.7719 0001217  60.4895 299.6234 15.45204148  5322"}}, "geometry": {"type": "Point", "coordinates": [171.8257057015278, 29.901217695110493]}}, {"type": "Feature", "properties": {"norad_id": 66621, "name": "STARLINK-35847", "group": "last-30-days", "lat": 50.18673646677978, "lon": -97.93991652641932, "alt_km": 421.62262175534124, "timestamp": "2025-12-21T07:34:33.300371+00:00", "meta": {"OBJECT_NAME": "STARLINK-35847", "OBJECT_ID": "2025-271E", "EPOCH": "2025-12-19T22:32:40.837056", "MEAN_MOTION": 15.4673989, "ECCENTRICITY": 5.74e-05, "INCLINATION": 53.1594, "RA_OF_ASC_NODE": 152.6978, "ARG_OF_PERICENTER": 182.8412, "MEAN_ANOMALY": 177.2593, "EPHEMERIS_TYPE": 0, "CLASSIFICATION_TYPE": "U", "NORAD_CAT_ID": 66621, "ELEMENT_SET_NO": 999, "REV_AT_EPOCH": 532, "BSTAR": -0.0053109, "MEAN_MOTION_DOT": -0.00261578, "MEAN_MOTION_DDOT": 0}, "tle": {"line1": "1 66621U 25271E   25353.93936154 -.00261578  00000+0 -53109-2 0  9996", "line2": "2 66621  53.1594 152.6978 0000574 182.8412 177.2593 15.46739890  5326"}}, "geometry": {"type": "Point", "coordinates": [-97.93991652641932, 50.18673646677978]}}, {"type": "Feature", "properties": {"norad_id": 66622, "name": "STARLINK-35950", "group": "last-30-days", "lat": -39.56092002913475, "lon": 108.19831110672938, "alt_km": 452.0121874749357, "timestamp": "2025-12-21T07:34:33.300381+00:00", "meta": {"OBJECT_NAME": "STARLINK-35950", "OBJECT_ID": "2025-271F", "EPOCH": "2025-12-20T22:00:01.999584", "MEAN_MOTION": 15.39595376, "ECCENTRICITY": 0.00011477, "INCLINATION": 53.1591, "RA_OF_ASC_NODE": 148.3496, "ARG_OF_PERICENTER": 73.9416, "MEAN_ANOMALY": 180.7741, "EPHEMERIS_TYPE": 0, "CLASSIFICATION_TYPE": "U", "NORAD_CAT_ID": 66622, "ELEMENT_SET_NO": 999, "REV_AT_EPOCH": 555, "BSTAR": 0.0014344262, "MEAN_MOTION_DOT": 0.00057362, "MEAN_MOTION_DDOT": 0}, "tle": {"line1": "1 66622U 25271F   25354.91668981  .00057362  00000+0  14344-2 0  9996", "line2": "2 66622  53.1591 148.3496 0001147  73.9416 180.7741 15.39595376  5552"}}, "geometry": {"type": "Point", "coordinates": [108.19831110672938, -39.56092002913475]}}, {"type": "Feature", "properties": {"norad_id": 66623, "name": "STARLINK-35920", "group": "last-30-days", "lat": -50.89262890718552, "lon": 33.827435624770786, "alt_km": 454.2151224361014, "timestamp": "2025-12-21T07:34:33.300391+00:00", "meta": {"OBJECT_NAME": "STARLINK-35920", "OBJECT_ID": "2025-271G", "EPOCH": "2025-12-20T18:00:21.356352", "MEAN_MOTION": 15.39640235, "ECCENTRICITY": 0.00035238, "INCLINATION": 53.1606, "RA_OF_ASC_NODE": 149.2333, "ARG_OF_PERICENTER": 63.4222, "MEAN_ANOMALY": 296.7144, "EPHEMERIS_TYPE": 0, "CLASSIFICATION_TYPE": "U", "NORAD_CAT_ID": 66623, "ELEMENT_SET_NO": 999, "REV_AT_EPOCH": 544, "BSTAR": 0.00064131801, "MEAN_MOTION_DOT": 0.00025358, "MEAN_MOTION_DDOT": 0}, "tle": {"line1": "1 66623U 25271G   25354.75024718  .00025358  00000+0  64132-3 0  9994", "line2": "2 66623  53.1606 149.2333 0003523  63.4222 296.7144 15.39640235  5447"}}, "geometry": {"type": "Point", "coordinates": [33.827435624770786, -50.89262890718552]}}]}